{
  "type": "FeatureCollection",
  "features": [
    {
      "type": "Feature",
      "properties": {
        "norad_id": 33376,
        "name": "GALAXY 19 (G-19)",
        "group": "intelsat",
        "lat": 0.024679105510829354,
        "lon": 123.34526096455753,
        "alt_km": 35797.00455167101,
        "timestamp": "2025-12-04T09:47:37.190209+00:00",
        "meta_object_name": "GALAXY 19 (G-19)",
        "meta_object_id": "2008-045A",
        "meta_epoch": "2025-12-03T13:17:38.372640",
        "meta_mean_motion": 1.00270861,
        "meta_eccentricity": 0.00033567,
        "meta_inclination": 0.016,
        "meta_ra_of_asc_node": 6.4574,
        "meta_arg_of_pericenter": 255.4369,
        "meta_mean_anomaly": 273.1641,
        "meta_ephemeris_type": 0,
        "meta_classification_type": "U",
        "meta_norad_cat_id": 33376,
        "meta_element_set_no": 999,
        "meta_rev_at_epoch": 6294,
        "meta_bstar": 0,
        "meta_mean_motion_dot": -1.21e-06,
        "meta_mean_motion_ddot": 0,
        "tle_line1": "1 33376U 08045A   25337.55391635 -.00000121  00000+0  00000+0 0  9999",
        "tle_line2": "2 33376   0.0160   6.4574 0003356 255.4369 273.1641  1.00270861 62948"
      },
      "geometry": {
        "type": "Point",
        "coordinates": [
          123.34526096455753,
          0.024679105510829354
        ]
      }
    },
    {
      "type": "Feature",
      "properties": {
        "norad_id": 35493,
        "name": "FM-5",
        "group": "intelsat",
        "lat": -0.009845918669750238,
        "lon": 134.2160502991144,
        "alt_km": 35782.793219737694,
        "timestamp": "2025-12-04T09:47:37.190221+00:00",
        "meta_object_name": "FM-5",
        "meta_object_id": "2009-034A",
        "meta_epoch": "2025-12-04T03:06:38.806848",
        "meta_mean_motion": 1.00269507,
        "meta_eccentricity": 0.0001103,
        "meta_inclination": 0.0201,
        "meta_ra_of_asc_node": 286.617,
        "meta_arg_of_pericenter": 238.8987,
        "meta_mean_anomaly": 228.2133,
        "meta_ephemeris_type": 0,
        "meta_classification_type": "U",
        "meta_norad_cat_id": 35493,
        "meta_element_set_no": 999,
        "meta_rev_at_epoch": 4468,
        "meta_bstar": 0,
        "meta_mean_motion_dot": -1.84e-06,
        "meta_mean_motion_ddot": 0,
        "tle_line1": "1 35493U 09034A   25338.12961582 -.00000184  00000+0  00000+0 0  9997",
        "tle_line2": "2 35493   0.0201 286.6170 0001103 238.8987 228.2133  1.00269507 44682"
      },
      "geometry": {
        "type": "Point",
        "coordinates": [
          134.2160502991144,
          -0.009845918669750238
        ]
      }
    },
    {
      "type": "Feature",
      "properties": {
        "norad_id": 36097,
        "name": "INTELSAT 14 (IS-14)",
        "group": "intelsat",
        "lat": -0.026879400192472095,
        "lon": 175.34037982056466,
        "alt_km": 35784.2848178092,
        "timestamp": "2025-12-04T09:47:37.190232+00:00",
        "meta_object_name": "INTELSAT 14 (IS-14)",
        "meta_object_id": "2009-064A",
        "meta_epoch": "2025-12-03T16:57:57.794688",
        "meta_mean_motion": 1.00271267,
        "meta_eccentricity": 0.00026605,
        "meta_inclination": 0.0152,
        "meta_ra_of_asc_node": 306.2108,
        "meta_arg_of_pericenter": 308.85,
        "meta_mean_anomaly": 27.2278,
        "meta_ephemeris_type": 0,
        "meta_classification_type": "U",
        "meta_norad_cat_id": 36097,
        "meta_element_set_no": 999,
        "meta_rev_at_epoch": 5864,
        "meta_bstar": 0,
        "meta_mean_motion_dot": -2.56e-06,
        "meta_mean_motion_ddot": 0,
        "tle_line1": "1 36097U 09064A   25337.70691892 -.00000256  00000+0  00000+0 0  9998",
        "tle_line2": "2 36097   0.0152 306.2108 0002660 308.8500  27.2278  1.00271267 58640"
      },
      "geometry": {
        "type": "Point",
        "coordinates": [
          175.34037982056466,
          -0.026879400192472095
        ]
      }
    },
    {
      "type": "Feature",
      "properties": {
        "norad_id": 36106,
        "name": "INTELSAT 15 (IS-15)",
        "group": "intelsat",
        "lat": -0.016561010774887367,
        "lon": -54.45335459364946,
        "alt_km": 35779.96931077928,
        "timestamp": "2025-12-04T09:47:37.190244+00:00",
        "meta_object_name": "INTELSAT 15 (IS-15)",
        "meta_object_id": "2009-067A",
        "meta_epoch": "2025-12-04T01:49:38.769888",
        "meta_mean_motion": 1.00270229,
        "meta_eccentricity": 0.0002458,
        "meta_inclination": 0.0136,
        "meta_ra_of_asc_node": 336.3023,
        "meta_arg_of_pericenter": 278.3743,
        "meta_mean_anomaly": 291.0512,
        "meta_ephemeris_type": 0,
        "meta_classification_type": "U",
        "meta_norad_cat_id": 36106,
        "meta_element_set_no": 999,
        "meta_rev_at_epoch": 3927,
        "meta_bstar": 0,
        "meta_mean_motion_dot": -1.69e-06,
        "meta_mean_motion_ddot": 0,
        "tle_line1": "1 36106U 09067A   25338.07614317 -.00000169  00000+0  00000+0 0  9993",
        "tle_line2": "2 36106   0.0136 336.3023 0002458 278.3743 291.0512  1.00270229 39275"
      },
      "geometry": {
        "type": "Point",
        "coordinates": [
          -54.45335459364946,
          -0.016561010774887367
        ]
      }
    },
    {
      "type": "Feature",
      "properties": {
        "norad_id": 36131,
        "name": "DIRECTV 12",
        "group": "intelsat",
        "lat": -0.00036658910423264417,
        "lon": 117.6474553723385,
        "alt_km": 35786.34465672097,
        "timestamp": "2025-12-04T09:47:37.190256+00:00",
        "meta_object_name": "DIRECTV 12",
        "meta_object_id": "2009-075A",
        "meta_epoch": "2025-12-03T23:32:29.378112",
        "meta_mean_motion": 1.00270455,
        "meta_eccentricity": 6.2e-06,
        "meta_inclination": 0.0135,
        "meta_ra_of_asc_node": 87.4871,
        "meta_arg_of_pericenter": 93.2421,
        "meta_mean_anomaly": 142.739,
        "meta_ephemeris_type": 0,
        "meta_classification_type": "U",
        "meta_norad_cat_id": 36131,
        "meta_element_set_no": 999,
        "meta_rev_at_epoch": 4459,
        "meta_bstar": 0,
        "meta_mean_motion_dot": -8.7e-07,
        "meta_mean_motion_ddot": 0,
        "tle_line1": "1 36131U 09075A   25337.98089558 -.00000087  00000+0  00000+0 0  9991",
        "tle_line2": "2 36131   0.0135  87.4871 0000062  93.2421 142.7390  1.00270455 44591"
      },
      "geometry": {
        "type": "Point",
        "coordinates": [
          117.6474553723385,
          -0.00036658910423264417
        ]
      }
    },
    {
      "type": "Feature",
      "properties": {
        "norad_id": 36397,
        "name": "INTELSAT 16 (IS-16)",
        "group": "intelsat",
        "lat": -0.0025674903799953503,
        "lon": 144.1352227910215,
        "alt_km": 35790.63025047189,
        "timestamp": "2025-12-04T09:47:37.190267+00:00",
        "meta_object_name": "INTELSAT 16 (IS-16)",
        "meta_object_id": "2010-006A",
        "meta_epoch": "2025-12-04T02:58:38.625888",
        "meta_mean_motion": 1.00269714,
        "meta_eccentricity": 0.0002414,
        "meta_inclination": 0.0101,
        "meta_ra_of_asc_node": 318.6757,
        "meta_arg_of_pericenter": 298.1734,
        "meta_mean_anomaly": 144.8118,
        "meta_ephemeris_type": 0,
        "meta_classification_type": "U",
        "meta_norad_cat_id": 36397,
        "meta_element_set_no": 999,
        "meta_rev_at_epoch": 5769,
        "meta_bstar": 0,
        "meta_mean_motion_dot": -2.28e-06,
        "meta_mean_motion_ddot": 0,
        "tle_line1": "1 36397U 10006A   25338.12405817 -.00000228  00000+0  00000+0 0  9995",
        "tle_line2": "2 36397   0.0101 318.6757 0002414 298.1734 144.8118  1.00269714 57698"
      },
      "geometry": {
        "type": "Point",
        "coordinates": [
          144.1352227910215,
          -0.0025674903799953503
        ]
      }
    },
    {
      "type": "Feature",
      "properties": {
        "norad_id": 37185,
        "name": "XM-5",
        "group": "intelsat",
        "lat": 4.9398945905150706e-06,
        "lon": 105.15874285481894,
        "alt_km": 35783.01942112771,
        "timestamp": "2025-12-04T09:47:37.190279+00:00",
        "meta_object_name": "XM-5",
        "meta_object_id": "2010-053A",
        "meta_epoch": "2025-12-03T16:37:59.708352",
        "meta_mean_motion": 1.00269411,
        "meta_eccentricity": 0.00013329,
        "meta_inclination": 0.0614,
        "meta_ra_of_asc_node": 273.227,
        "meta_arg_of_pericenter": 240.4281,
        "meta_mean_anomaly": 53.4318,
        "meta_ephemeris_type": 0,
        "meta_classification_type": "U",
        "meta_norad_cat_id": 37185,
        "meta_element_set_no": 999,
        "meta_rev_at_epoch": 5552,
        "meta_bstar": 0,
        "meta_mean_motion_dot": -5e-08,
        "meta_mean_motion_ddot": 0,
        "tle_line1": "1 37185U 10053A   25337.69305218 -.00000005  00000+0  00000+0 0  9991",
        "tle_line2": "2 37185   0.0614 273.2270 0001332 240.4281  53.4318  1.00269411 55525"
      },
      "geometry": {
        "type": "Point",
        "coordinates": [
          105.15874285481894,
          4.9398945905150706e-06
        ]
      }
    }
  ]
}